start=new Date('2022-03-07T00:00:00.000Z').valueOf();
sats=[{"ARG_OF_PERICENTER":"46.5616","MEAN_MOTION":"15.73190824","ELEMENT_SET_NO":"999","BSTAR":"0.00042915000000","TLE_LINE1":"1 51742U 22016AE  22065.58334491  .00060015  00000-0  42915-3 0  9998","OBJECT_TYPE":"PAYLOAD","OBJECT_ID":"2022-016AE","RA_OF_ASC_NODE":"75.2819","APOAPSIS":"350.553","EPHEMERIS_TYPE":"0","PERIOD":"91.534","MEAN_ELEMENT_THEORY":"SGP4","SEMIMAJOR_AXIS":"6727.921","MEAN_MOTION_DOT":"0.00060015","TIME_SYSTEM":"UTC","SITE":"AFETR","OBJECT_NAME":"STARLINK-3521","CENTER_NAME":"EARTH","RCS_SIZE":"LARGE","TLE_LINE2":"2 51742  53.2179  75.2819 0001140  46.5616 254.7091 15.73190824  2734","FILE":"3347638","ECCENTRICITY":"0.00011400","NORAD_CAT_ID":"51742","MEAN_MOTION_DDOT":"0.0000000000000","COUNTRY_CODE":"US","MEAN_ANOMALY":"254.7091","PERIAPSIS":"349.019","GP_ID":"198070635","REV_AT_EPOCH":"273","REF_FRAME":"TEME","DECAY_DATE":null,"LAUNCH_DATE":"2022-02-21","INCLINATION":"53.2179","CLASSIFICATION_TYPE":"U","EPOCH":"2022-03-06T14:00:01.000224"},{"EPOCH":"2022-03-06T22:00:00.999936","LAUNCH_DATE":"2022-02-21","INCLINATION":"53.2177","CLASSIFICATION_TYPE":"U","DECAY_DATE":null,"REV_AT_EPOCH":"338","REF_FRAME":"TEME","GP_ID":"198083449","COUNTRY_CODE":"US","MEAN_ANOMALY":"316.9810","PERIAPSIS":"348.997","NORAD_CAT_ID":"51743","MEAN_MOTION_DDOT":"0.0000000000000","RCS_SIZE":"LARGE","TLE_LINE2":"2 51743  53.2177  73.6336 0000955  71.3375 316.9810 15.73242393  3381","FILE":"3348169","ECCENTRICITY":"0.00009550","SITE":"AFETR","TIME_SYSTEM":"UTC","CENTER_NAME":"EARTH","OBJECT_NAME":"STARLINK-3512","MEAN_MOTION_DOT":"-0.00053122","SEMIMAJOR_AXIS":"6727.774","APOAPSIS":"350.282","EPHEMERIS_TYPE":"0","PERIOD":"91.531","MEAN_ELEMENT_THEORY":"SGP4","BSTAR":"-0.00037580000000","TLE_LINE1":"1 51743U 22016AF  22065.91667824 -.00053122  00000-0 -37580-3 0  9990","OBJECT_ID":"2022-016AF","OBJECT_TYPE":"PAYLOAD","RA_OF_ASC_NODE":"73.6336","ARG_OF_PERICENTER":"71.3375","MEAN_MOTION":"15.73242393","ELEMENT_SET_NO":"999"},{"NORAD_CAT_ID":"51744","MEAN_MOTION_DDOT":"0.0000000000000","RCS_SIZE":"LARGE","TLE_LINE2":"2 51744  53.2180  75.2794 0001291  67.1901 235.3933 15.73199778  2730","ECCENTRICITY":"0.00012910","FILE":"3347638","TIME_SYSTEM":"UTC","SITE":"AFETR","CENTER_NAME":"EARTH","OBJECT_NAME":"STARLINK-3452","MEAN_MOTION_DOT":"0.00025953","SEMIMAJOR_AXIS":"6727.896","APOAPSIS":"350.629","EPHEMERIS_TYPE":"0","PERIOD":"91.533","MEAN_ELEMENT_THEORY":"SGP4","TLE_LINE1":"1 51744U 22016AG  22065.58334491  .00025953  00000-0  18876-3 0  9991","BSTAR":"0.00018876000000","OBJECT_TYPE":"PAYLOAD","OBJECT_ID":"2022-016AG","RA_OF_ASC_NODE":"75.2794","ARG_OF_PERICENTER":"67.1901","MEAN_MOTION":"15.73199778","ELEMENT_SET_NO":"999","EPOCH":"2022-03-06T14:00:01.000224","LAUNCH_DATE":"2022-02-21","INCLINATION":"53.2180","CLASSIFICATION_TYPE":"U","DECAY_DATE":null,"REV_AT_EPOCH":"273","REF_FRAME":"TEME","GP_ID":"198070739","COUNTRY_CODE":"US","MEAN_ANOMALY":"235.3933","PERIAPSIS":"348.892"},{"GP_ID":"198083446","MEAN_ANOMALY":"328.1021","PERIAPSIS":"349.059","COUNTRY_CODE":"US","CLASSIFICATION_TYPE":"U","INCLINATION":"53.2179","LAUNCH_DATE":"2022-02-21","EPOCH":"2022-03-06T22:00:00.999936","REV_AT_EPOCH":"338","REF_FRAME":"TEME","DECAY_DATE":null,"EPHEMERIS_TYPE":"0","MEAN_ELEMENT_THEORY":"SGP4","PERIOD":"91.533","APOAPSIS":"350.484","SEMIMAJOR_AXIS":"6727.907","MEAN_MOTION":"15.73195907","ELEMENT_SET_NO":"999","ARG_OF_PERICENTER":"60.8429","RA_OF_ASC_NODE":"73.6326","TLE_LINE1":"1 51745U 22016AH  22065.91667824  .00018717  00000-0  13750-3 0  9994","BSTAR":"0.00013750000000","OBJECT_TYPE":"PAYLOAD","OBJECT_ID":"2022-016AH","FILE":"3348169","ECCENTRICITY":"0.00010590","RCS_SIZE":"LARGE","TLE_LINE2":"2 51745  53.2179  73.6326 0001059  60.8429 328.1021 15.73195907  3380","MEAN_MOTION_DDOT":"0.0000000000000","NORAD_CAT_ID":"51745","MEAN_MOTION_DOT":"0.00018717","TIME_SYSTEM":"UTC","SITE":"AFETR","CENTER_NAME":"EARTH","OBJECT_NAME":"STARLINK-3449"},{"BSTAR":"0.00013839000000","TLE_LINE1":"1 51746U 22016AJ  22065.58334491  .00018842  00000-0  13839-3 0  9996","OBJECT_TYPE":"PAYLOAD","OBJECT_ID":"2022-016AJ","RA_OF_ASC_NODE":"75.2769","ARG_OF_PERICENTER":"46.7752","MEAN_MOTION":"15.73195453","ELEMENT_SET_NO":"999","SEMIMAJOR_AXIS":"6727.908","APOAPSIS":"350.839","EPHEMERIS_TYPE":"0","MEAN_ELEMENT_THEORY":"SGP4","PERIOD":"91.533","SITE":"AFETR","TIME_SYSTEM":"UTC","CENTER_NAME":"EARTH","OBJECT_NAME":"STARLINK-3502","MEAN_MOTION_DOT":"0.00018842","NORAD_CAT_ID":"51746","MEAN_MOTION_DDOT":"0.0000000000000","RCS_SIZE":"LARGE","TLE_LINE2":"2 51746  53.2180  75.2769 0001584  46.7752 257.0842 15.73195453  2732","FILE":"3347638","ECCENTRICITY":"0.00015840","COUNTRY_CODE":"US","MEAN_ANOMALY":"257.0842","PERIAPSIS":"348.707","GP_ID":"198070315","DECAY_DATE":null,"REV_AT_EPOCH":"273","REF_FRAME":"TEME","EPOCH":"2022-03-06T14:00:01.000224","LAUNCH_DATE":"2022-02-21","INCLINATION":"53.2180","CLASSIFICATION_TYPE":"U"},{"RCS_SIZE":"LARGE","TLE_LINE2":"2 51747  53.2177  75.2801 0001108  60.4530 241.4780 15.73203406  2731","ECCENTRICITY":"0.00011080","FILE":"3347638","NORAD_CAT_ID":"51747","MEAN_MOTION_DDOT":"0.0000000000000","MEAN_MOTION_DOT":"-0.00004589","TIME_SYSTEM":"UTC","SITE":"AFETR","CENTER_NAME":"EARTH","OBJECT_NAME":"STARLINK-3446","APOAPSIS":"350.496","EPHEMERIS_TYPE":"0","PERIOD":"91.533","MEAN_ELEMENT_THEORY":"SGP4","SEMIMAJOR_AXIS":"6727.885","ARG_OF_PERICENTER":"60.4530","MEAN_MOTION":"15.73203406","ELEMENT_SET_NO":"999","BSTAR":"-0.00002829700000","TLE_LINE1":"1 51747U 22016AK  22065.58334491 -.00004589  00000-0 -28297-4 0  9997","OBJECT_TYPE":"PAYLOAD","OBJECT_ID":"2022-016AK","RA_OF_ASC_NODE":"75.2801","LAUNCH_DATE":"2022-02-21","INCLINATION":"53.2177","CLASSIFICATION_TYPE":"U","EPOCH":"2022-03-06T14:00:01.000224","REV_AT_EPOCH":"273","REF_FRAME":"TEME","DECAY_DATE":null,"GP_ID":"198070530","COUNTRY_CODE":"US","MEAN_ANOMALY":"241.4780","PERIAPSIS":"349.005"},{"REV_AT_EPOCH":"273","REF_FRAME":"TEME","DECAY_DATE":null,"CLASSIFICATION_TYPE":"U","LAUNCH_DATE":"2022-02-21","INCLINATION":"53.2181","EPOCH":"2022-03-06T14:00:01.000224","MEAN_ANOMALY":"270.3726","PERIAPSIS":"348.968","COUNTRY_CODE":"US","GP_ID":"198070844","MEAN_MOTION_DOT":"0.00080419","TIME_SYSTEM":"UTC","SITE":"AFETR","OBJECT_NAME":"STARLINK-3501","CENTER_NAME":"EARTH","ECCENTRICITY":"0.00012370","FILE":"3347638","RCS_SIZE":"LARGE","TLE_LINE2":"2 51748  53.2181  75.2749 0001237  34.4758 270.3726 15.73186040  2739","MEAN_MOTION_DDOT":"0.0000000000000","NORAD_CAT_ID":"51748","MEAN_MOTION":"15.73186040","ELEMENT_SET_NO":"999","ARG_OF_PERICENTER":"34.4758","RA_OF_ASC_NODE":"75.2749","BSTAR":"0.00057228000000","TLE_LINE1":"1 51748U 22016AL  22065.58334491  .00080419  00000-0  57228-3 0  9997","OBJECT_ID":"2022-016AL","OBJECT_TYPE":"PAYLOAD","EPHEMERIS_TYPE":"0","MEAN_ELEMENT_THEORY":"SGP4","PERIOD":"91.534","APOAPSIS":"350.632","SEMIMAJOR_AXIS":"6727.935"},{"RA_OF_ASC_NODE":"75.2775","BSTAR":"0.00042592000000","TLE_LINE1":"1 51749U 22016AM  22065.58334491  .00059527  00000-0  42592-3 0  9992","OBJECT_ID":"2022-016AM","OBJECT_TYPE":"PAYLOAD","MEAN_MOTION":"15.73179351","ELEMENT_SET_NO":"999","ARG_OF_PERICENTER":"42.9114","SEMIMAJOR_AXIS":"6727.954","EPHEMERIS_TYPE":"0","PERIOD":"91.534","MEAN_ELEMENT_THEORY":"SGP4","APOAPSIS":"350.887","TIME_SYSTEM":"UTC","SITE":"AFETR","OBJECT_NAME":"STARLINK-3451","CENTER_NAME":"EARTH","MEAN_MOTION_DOT":"0.00059527","MEAN_MOTION_DDOT":"0.0000000000000","NORAD_CAT_ID":"51749","ECCENTRICITY":"0.00015870","FILE":"3347638","RCS_SIZE":"LARGE","TLE_LINE2":"2 51749  53.2177  75.2775 0001587  42.9114 260.2705 15.73179351  2734","MEAN_ANOMALY":"260.2705","PERIAPSIS":"348.751","COUNTRY_CODE":"US","GP_ID":"198070424","DECAY_DATE":null,"REV_AT_EPOCH":"273","REF_FRAME":"TEME","EPOCH":"2022-03-06T14:00:01.000224","CLASSIFICATION_TYPE":"U","INCLINATION":"53.2177","LAUNCH_DATE":"2022-02-21"},{"MEAN_MOTION_DOT":"-0.00001080","TIME_SYSTEM":"UTC","SITE":"AFETR","CENTER_NAME":"EARTH","OBJECT_NAME":"STARLINK-3505","ECCENTRICITY":"0.00010590","FILE":"3348170","RCS_SIZE":"LARGE","TLE_LINE2":"2 51750  53.2184  73.6207 0001059  66.7376 328.5876 15.73240509  3365","MEAN_MOTION_DDOT":"0.0000000000000","NORAD_CAT_ID":"51750","MEAN_MOTION":"15.73240509","ELEMENT_SET_NO":"999","ARG_OF_PERICENTER":"66.7376","RA_OF_ASC_NODE":"73.6207","TLE_LINE1":"1 51750U 22016AN  22065.91667824 -.00001080  00000-0 -32722-5 0  9999","BSTAR":"-0.00000327220000","OBJECT_TYPE":"PAYLOAD","OBJECT_ID":"2022-016AN","EPHEMERIS_TYPE":"0","PERIOD":"91.531","MEAN_ELEMENT_THEORY":"SGP4","APOAPSIS":"350.357","SEMIMAJOR_AXIS":"6727.780","REV_AT_EPOCH":"336","REF_FRAME":"TEME","DECAY_DATE":null,"CLASSIFICATION_TYPE":"U","LAUNCH_DATE":"2022-02-21","INCLINATION":"53.2184","EPOCH":"2022-03-06T22:00:00.999936","MEAN_ANOMALY":"328.5876","PERIAPSIS":"348.932","COUNTRY_CODE":"US","GP_ID":"198083453"},{"EPOCH":"2022-03-06T22:00:00.999936","LAUNCH_DATE":"2022-02-21","INCLINATION":"53.2180","CLASSIFICATION_TYPE":"U","DECAY_DATE":null,"REV_AT_EPOCH":"336","REF_FRAME":"TEME","GP_ID":"198083456","COUNTRY_CODE":"US","MEAN_ANOMALY":"334.9965","PERIAPSIS":"348.844","NORAD_CAT_ID":"51751","MEAN_MOTION_DDOT":"0.0000000000000","RCS_SIZE":"LARGE","TLE_LINE2":"2 51751  53.2180  73.6236 0001189  58.4110 334.9965 15.73240891  3366","FILE":"3348170","ECCENTRICITY":"0.00011890","TIME_SYSTEM":"UTC","SITE":"AFETR","OBJECT_NAME":"STARLINK-3506","CENTER_NAME":"EARTH","MEAN_MOTION_DOT":"-0.00022768","SEMIMAJOR_AXIS":"6727.779","APOAPSIS":"350.444","EPHEMERIS_TYPE":"0","MEAN_ELEMENT_THEORY":"SGP4","PERIOD":"91.531","BSTAR":"-0.00015797000000","TLE_LINE1":"1 51751U 22016AP  22065.91667824 -.00022768  00000-0 -15797-3 0  9997","OBJECT_ID":"2022-016AP","OBJECT_TYPE":"PAYLOAD","RA_OF_ASC_NODE":"73.6236","ARG_OF_PERICENTER":"58.4110","MEAN_MOTION":"15.73240891","ELEMENT_SET_NO":"999"}];
